SWAS                    
1 25560U 98071A   26068.53487068  .00004636  00000+0  29986-3 0  9991
2 25560  69.8952 124.3662 0004099  14.3215 345.8065 15.08888192482231
STARLINK-3570           
1 51882U 22022AG  26068.18941469 -.00000012  00000+0  17345-4 0  9993
2 51882  53.2211   1.3804 0001875  91.5099 268.6108 15.08832143223227
